{"type": "FeatureCollection", "features": [ {"type": "Feature", "properties": {"norad_id": 34141, "name": "COSMOS 2251 DEB", "group": "cosmos-2251-debris", "lat": -64.74379395933057, "lon": -94.62493584106544, "alt_km": 748.8512323017403, "timestamp": "2025-12-02T13:52:17.655126+00:00", "meta": {"OBJECT_NAME": "COSMOS 2251 DEB", "OBJECT_ID": "1993-036LN", "EPOCH": "2025-12-02T06:21:24.664320", "MEAN_MOTION": 14.49035619, "ECCENTRICITY": 0.00485556, "INCLINATION": 74.0117, "RA_OF_ASC_NODE": 48.5361, "ARG_OF_PERICENTER": 138.0627, "MEAN_ANOMALY": 278.8713, "EPHEMERIS_TYPE": 0, "CLASSIFICATION_TYPE": "U", "NORAD_CAT_ID": 34141, "ELEMENT_SET_NO": 999, "REV_AT_EPOCH": 87542, "BSTAR": 0.0021318318, "MEAN_MOTION_DOT": 8.195e-05, "MEAN_MOTION_DDOT": 0}, "tle": {"line1": "1 34141U 93036LN  25336.26486880  .00008195  00000+0  21318-2 0  9994", "line2": "2 34141  74.0117  48.5361 0048555 138.0627 278.8713 14.49035619875420"}}, "geometry": {"type": "Point", "coordinates": [-94.62493584106544, -64.74379395933057]}}, {"type": "Feature", "properties": {"norad_id": 34270, "name": "COSMOS 2251 DEB", "group": "cosmos-2251-debris", "lat": -17.073801133423384, "lon": -38.84349269805102, "alt_km": 707.1616374523974, "timestamp": "2025-12-02T13:52:17.655136+00:00", "meta": {"OBJECT_NAME": "COSMOS 2251 DEB", "OBJECT_ID": "1993-036LQ", "EPOCH": "2025-12-02T02:28:52.687776", "MEAN_MOTION": 14.65073288, "ECCENTRICITY": 0.00478679, "INCLINATION": 74.0111, "RA_OF_ASC_NODE": 327.1228, "ARG_OF_PERICENTER": 123.2403, "MEAN_ANOMALY": 237.3367, "EPHEMERIS_TYPE": 0, "CLASSIFICATION_TYPE": "U", "NORAD_CAT_ID": 34270, "ELEMENT_SET_NO": 999, "REV_AT_EPOCH": 88940, "BSTAR": 0.00067366482, "MEAN_MOTION_DOT": 3.647e-05, "MEAN_MOTION_DDOT": 0}, "tle": {"line1": "1 34270U 93036LQ  25336.10338759  .00003647  00000+0  67366-3 0  9992", "line2": "2 34270  74.0111 327.1228 0047867 123.2403 237.3367 14.65073288889408"}}, "geometry": {"type": "Point", "coordinates": [-38.84349269805102, -17.073801133423384]}}, {"type": "Feature", "properties": {"norad_id": 34271, "name": "COSMOS 2251 DEB", "group": "cosmos-2251-debris", "lat": 73.96235890468834, "lon": -55.51589544789872, "alt_km": 666.2916612505715, "timestamp": "2025-12-02T13:52:17.655147+00:00", "meta": {"OBJECT_NAME": "COSMOS 2251 DEB", "OBJECT_ID": "1993-036LR", "EPOCH": "2025-12-02T02:43:20.334720", "MEAN_MOTION": 14.7037433, "ECCENTRICITY": 0.0019819, "INCLINATION": 74.0211, "RA_OF_ASC_NODE": 219.9673, "ARG_OF_PERICENTER": 275.3903, "MEAN_ANOMALY": 235.2975, "EPHEMERIS_TYPE": 0, "CLASSIFICATION_TYPE": "U", "NORAD_CAT_ID": 34271, "ELEMENT_SET_NO": 999, "REV_AT_EPOCH": 88078, "BSTAR": 0.0021873181, "MEAN_MOTION_DOT": 0.00013265, "MEAN_MOTION_DDOT": 0}, "tle": {"line1": "1 34271U 93036LR  25336.11342980  .00013265  00000+0  21873-2 0  9994", "line2": "2 34271  74.0211 219.9673 0019819 275.3903 235.2975 14.70374330880784"}}, "geometry": {"type": "Point", "coordinates": [-55.51589544789872, 73.96235890468834]}}, {"type": "Feature", "properties": {"norad_id": 34273, "name": "COSMOS 2251 DEB", "group": "cosmos-2251-debris", "lat": 73.7305550926152, "lon": -151.94689626049455, "alt_km": 690.0802182582365, "timestamp": "2025-12-02T13:52:17.655157+00:00", "meta": {"OBJECT_NAME": "COSMOS 2251 DEB", "OBJECT_ID": "1993-036LT", "EPOCH": "2025-11-30T19:25:55.480224", "MEAN_MOTION": 14.61028449, "ECCENTRICITY": 0.00145917, "INCLINATION": 74.0344, "RA_OF_ASC_NODE": 110.2333, "ARG_OF_PERICENTER": 235.2366, "MEAN_ANOMALY": 280.9577, "EPHEMERIS_TYPE": 0, "CLASSIFICATION_TYPE": "U", "NORAD_CAT_ID": 34273, "ELEMENT_SET_NO": 999, "REV_AT_EPOCH": 88447, "BSTAR": 0.0011087213, "MEAN_MOTION_DOT": 5.424e-05, "MEAN_MOTION_DDOT": 0}, "tle": {"line1": "1 34273U 93036LT  25334.80966991  .00005424  00000+0  11087-2 0  9998", "line2": "2 34273  74.0344 110.2333 0014591 235.2366 280.9577 14.61028449884471"}}, "geometry": {"type": "Point", "coordinates": [-151.94689626049455, 73.7305550926152]}}, {"type": "Feature", "properties": {"norad_id": 34274, "name": "COSMOS 2251 DEB", "group": "cosmos-2251-debris", "lat": 43.913101765182546, "lon": 104.174799548618, "alt_km": 690.1341952917128, "timestamp": "2025-12-02T13:52:17.655167+00:00", "meta": {"OBJECT_NAME": "COSMOS 2251 DEB", "OBJECT_ID": "1993-036LU", "EPOCH": "2025-12-01T14:46:35.717952", "MEAN_MOTION": 14.64539828, "ECCENTRICITY": 0.00227166, "INCLINATION": 74.0033, "RA_OF_ASC_NODE": 89.9943, "ARG_OF_PERICENTER": 240.4798, "MEAN_ANOMALY": 134.258, "EPHEMERIS_TYPE": 0, "CLASSIFICATION_TYPE": "U", "NORAD_CAT_ID": 34274, "ELEMENT_SET_NO": 999, "REV_AT_EPOCH": 88513, "BSTAR": 0.0014346565, "MEAN_MOTION_DOT": 7.616e-05, "MEAN_MOTION_DDOT": 0}, "tle": {"line1": "1 34274U 93036LU  25335.61569118  .00007616  00000+0  14347-2 0  9996", "line2": "2 34274  74.0033  89.9943 0022716 240.4798 134.2580 14.64539828885131"}}, "geometry": {"type": "Point", "coordinates": [104.174799548618, 43.913101765182546]}}, {"type": "Feature", "properties": {"norad_id": 34276, "name": "COSMOS 2251 DEB", "group": "cosmos-2251-debris", "lat": -70.32823497685192, "lon": -22.093733813460563, "alt_km": 693.4530967463952, "timestamp": "2025-12-02T13:52:17.655178+00:00", "meta": {"OBJECT_NAME": "COSMOS 2251 DEB", "OBJECT_ID": "1993-036LW", "EPOCH": "2025-12-01T19:07:13.689408", "MEAN_MOTION": 14.57091222, "ECCENTRICITY": 0.00227989, "INCLINATION": 74.0224, "RA_OF_ASC_NODE": 106.1231, "ARG_OF_PERICENTER": 253.4105, "MEAN_ANOMALY": 228.2784, "EPHEMERIS_TYPE": 0, "CLASSIFICATION_TYPE": "U", "NORAD_CAT_ID": 34276, "ELEMENT_SET_NO": 999, "REV_AT_EPOCH": 88433, "BSTAR": 0.00095047569, "MEAN_MOTION_DOT": 4.27e-05, "MEAN_MOTION_DDOT": 0}, "tle": {"line1": "1 34276U 93036LW  25335.79668622  .00004270  00000+0  95048-3 0  9998", "line2": "2 34276  74.0224 106.1231 0022798 253.4105 228.2784 14.57091222884337"}}, "geometry": {"type": "Point", "coordinates": [-22.093733813460563, -70.32823497685192]}}, {"type": "Feature", "properties": {"norad_id": 34297, "name": "COSMOS 2251 DEB", "group": "cosmos-2251-debris", "lat": -55.2830000079721, "lon": -81.48862088707148, "alt_km": 772.7697794491969, "timestamp": "2025-12-02T13:52:17.655188+00:00", "meta": {"OBJECT_NAME": "COSMOS 2251 DEB", "OBJECT_ID": "1993-036MT", "EPOCH": "2025-12-02T08:09:25.674336", "MEAN_MOTION": 14.36613577, "ECCENTRICITY": 0.00168155, "INCLINATION": 74.0482, "RA_OF_ASC_NODE": 303.3295, "ARG_OF_PERICENTER": 14.3521, "MEAN_ANOMALY": 136.2236, "EPHEMERIS_TYPE": 0, "CLASSIFICATION_TYPE": "U", "NORAD_CAT_ID": 34297, "ELEMENT_SET_NO": 999, "REV_AT_EPOCH": 87915, "BSTAR": 0.00020252961, "MEAN_MOTION_DOT": 5.71e-06, "MEAN_MOTION_DDOT": 0}, "tle": {"line1": "1 34297U 93036MT  25336.33988049  .00000571  00000+0  20253-3 0  9996", "line2": "2 34297  74.0482 303.3295 0016815  14.3521 136.2236 14.36613577879150"}}, "geometry": {"type": "Point", "coordinates": [-81.48862088707148, -55.2830000079721]}}, {"type": "Feature", "properties": {"norad_id": 34299, "name": "COSMOS 2251 DEB", "group": "cosmos-2251-debris", "lat": -5.8502223157586, "lon": 179.10363804296412, "alt_km": 405.6388534410935, "timestamp": "2025-12-02T13:52:17.655198+00:00", "meta": {"OBJECT_NAME": "COSMOS 2251 DEB", "OBJECT_ID": "1993-036MV", "EPOCH": "2025-12-02T03:49:52.925376", "MEAN_MOTION": 15.57825891, "ECCENTRICITY": 0.00252004, "INCLINATION": 73.984, "RA_OF_ASC_NODE": 358.3484, "ARG_OF_PERICENTER": 64.1855, "MEAN_ANOMALY": 296.1957, "EPHEMERIS_TYPE": 0, "CLASSIFICATION_TYPE": "U", "NORAD_CAT_ID": 34299, "ELEMENT_SET_NO": 999, "REV_AT_EPOCH": 88845, "BSTAR": 0.0053822483, "MEAN_MOTION_DOT": 0.00428117, "MEAN_MOTION_DDOT": 0}, "tle": {"line1": "1 34299U 93036MV  25336.15964034  .00428117  00000+0  53822-2 0  9993", "line2": "2 34299  73.9840 358.3484 0025200  64.1855 296.1957 15.57825891888456"}}, "geometry": {"type": "Point", "coordinates": [179.10363804296412, -5.8502223157586]}}, {"type": "Feature", "properties": {"norad_id": 34301, "name": "COSMOS 2251 DEB", "group": "cosmos-2251-debris", "lat": -47.431671753411244, "lon": 168.69023764413404, "alt_km": 620.1885983639204, "timestamp": "2025-12-02T13:52:17.655208+00:00", "meta": {"OBJECT_NAME": "COSMOS 2251 DEB", "OBJECT_ID": "1993-036MX", "EPOCH": "2025-12-02T01:51:29.801664", "MEAN_MOTION": 14.83737418, "ECCENTRICITY": 0.00124969, "INCLINATION": 74.0066, "RA_OF_ASC_NODE": 187.8785, "ARG_OF_PERICENTER": 246.6039, "MEAN_ANOMALY": 270.7509, "EPHEMERIS_TYPE": 0, "CLASSIFICATION_TYPE": "U", "NORAD_CAT_ID": 34301, "ELEMENT_SET_NO": 999, "REV_AT_EPOCH": 88242, "BSTAR": 0.0029297548, "MEAN_MOTION_DOT": 0.00024327, "MEAN_MOTION_DDOT": 0}, "tle": {"line1": "1 34301U 93036MX  25336.07742826  .00024327  00000+0  29298-2 0  9996", "line2": "2 34301  74.0066 187.8785 0012496 246.6039 270.7509 14.83737418882422"}}, "geometry": {"type": "Point", "coordinates": [168.69023764413404, -47.431671753411244]}}, {"type": "Feature", "properties": {"norad_id": 34302, "name": "COSMOS 2251 DEB", "group": "cosmos-2251-debris", "lat": -54.5939940210023, "lon": -14.313459111248102, "alt_km": 797.3006560057629, "timestamp": "2025-12-02T13:52:17.655219+00:00", "meta": {"OBJECT_NAME": "COSMOS 2251 DEB", "OBJECT_ID": "1993-036MY", "EPOCH": "2025-12-02T06:22:55.500096", "MEAN_MOTION": 14.39265846, "ECCENTRICITY": 0.00781434, "INCLINATION": 74.1772, "RA_OF_ASC_NODE": 142.7445, "ARG_OF_PERICENTER": 1.0456, "MEAN_ANOMALY": 61.3079, "EPHEMERIS_TYPE": 0, "CLASSIFICATION_TYPE": "U", "NORAD_CAT_ID": 34302, "ELEMENT_SET_NO": 999, "REV_AT_EPOCH": 87570, "BSTAR": 0.00082169148, "MEAN_MOTION_DOT": 2.617e-05, "MEAN_MOTION_DDOT": 0}, "tle": {"line1": "1 34302U 93036MY  25336.26592014  .00002617  00000+0  82169-3 0  9995", "line2": "2 34302  74.1772 142.7445 0078143   1.0456  61.3079 14.39265846875709"}}, "geometry": {"type": "Point", "coordinates": [-14.313459111248102, -54.5939940210023]}}]}